[{"OBJECT_NAME":"STARLINK-33975","OBJECT_ID":"2025-091AC","EPOCH":"2026-03-09T19:21:51.575616","MEAN_MOTION":15.27618476,"ECCENTRICITY":0.00044246,"INCLINATION":43.0059,"RA_OF_ASC_NODE":51.5543,"ARG_OF_PERICENTER":308.3925,"MEAN_ANOMALY":51.6529,"EPHEMERIS_TYPE":0,"CLASSIFICATION_TYPE":"U","NORAD_CAT_ID":63802,"ELEMENT_SET_NO":999,"REV_AT_EPOCH":4903,"BSTAR":0.00092443688,"MEAN_MOTION_DOT":0.00025298,"MEAN_MOTION_DDOT":0},{"OBJECT_NAME":"FREGAT DEB","OBJECT_ID":"2011-037BP","EPOCH":"2026-03-09T06:46:06.972096","MEAN_MOTION":12.80481599,"ECCENTRICITY":0.12781698,"INCLINATION":51.4136,"RA_OF_ASC_NODE":170.397,"ARG_OF_PERICENTER":239.8148,"MEAN_ANOMALY":107.0118,"EPHEMERIS_TYPE":0,"CLASSIFICATION_TYPE":"U","NORAD_CAT_ID":45829,"ELEMENT_SET_NO":999,"REV_AT_EPOCH":25015,"BSTAR":0.0043609848,"MEAN_MOTION_DOT":0.00065096,"MEAN_MOTION_DDOT":0}]
